OBJECT_NAME,OBJECT_ID,EPOCH,MEAN_MOTION,ECCENTRICITY,INCLINATION,RA_OF_ASC_NODE,ARG_OF_PERICENTER,MEAN_ANOMALY,EPHEMERIS_TYPE,CLASSIFICATION_TYPE,NORAD_CAT_ID,ELEMENT_SET_NO,REV_AT_EPOCH,BSTAR,MEAN_MOTION_DOT,MEAN_MOTION_DDOT
STARLINK-1759,2020-062R,2024-02-12T17:19:01.596864,15.04795651,.0001154,53.0538,170.4694,101.3251,258.7867,0,U,46340,999,19035,.10629E-2,.14918E-3,0
STARLINK-1760,2020-062S,2024-02-12T12:16:29.342208,15.06432214,.0001332,53.0528,151.2342,91.8592,268.2550,0,U,46341,999,19062,.1253E-2,.18447E-3,0
STARLINK-1762,2020-062T,2024-02-12T14:58:23.009088,15.06439551,.0001233,53.0541,170.7308,97.1291,262.9839,0,U,46342,999,19035,.12109E-2,.1782E-3,0
STARLINK-1764,2020-062U,2024-02-12T14:50:26.113920,15.06411551,.0001404,53.0543,150.7538,85.9836,274.1313,0,U,46343,999,19081,.28523E-3,.3971E-4,0
STARLINK-1765,2020-062V,2024-02-12T16:52:29.447904,15.06437806,.0001415,53.0538,150.3724,86.7990,273.3161,0,U,46344,999,19064,.11345E-2,.16674E-3,0
STARLINK-1767,2020-062W,2024-02-12T15:19:36.006816,15.06416461,.0001294,53.0534,170.6604,82.7941,277.3195,0,U,46345,999,19053,.10508E-3,.1285E-4,0
STARLINK-1547,2020-062Y,2024-02-12T14:19:16.454208,15.06417210,.0001452,53.0533,125.8507,91.5895,268.5260,0,U,46347,999,19115,.81869E-3,.11939E-3,0
STARLINK-1553,2020-062Z,2024-02-12T13:46:43.099680,15.06433716,.0001457,53.0548,150.9496,102.4887,257.6265,0,U,46348,999,19062,.13419E-2,.19781E-3,0
STARLINK-1575,2020-062AA,2024-02-12T12:06:34.458336,15.06409347,.0001461,53.0533,126.2674,80.5352,279.5802,0,U,46349,999,19096,.70451E-3,.1023E-3,0
STARLINK-1617,2020-062AB,2024-02-13T01:35:09.727584,15.06686743,.0000924,53.0541,168.7433,205.2363,154.8581,0,U,46350,999,19060,.80481E-2,.122645E-2,0
STARLINK-1646,2020-062AC,2024-02-12T16:10:01.670016,15.06427007,.0001516,53.0540,150.5042,86.8461,273.2701,0,U,46351,999,19065,.69553E-3,.10101E-3,0
STARLINK-1653,2020-062AD,2024-02-12T12:32:25.117152,15.06382054,.0001426,53.0539,151.1824,100.0629,260.0521,0,U,46352,999,19080,-.51429E-3,-.793E-4,0
STARLINK-1656,2020-062AE,2024-02-12T15:40:50.000736,15.06422249,.0001234,53.0538,170.5976,98.1928,261.9201,0,U,46353,999,19035,.3118E-3,.4369E-4,0
STARLINK-1657,2020-062AF,2024-02-12T15:24:54.290592,15.06418619,.0001206,53.0527,170.6436,91.0781,269.0346,0,U,46354,999,19053,.21564E-3,.2934E-4,0
STARLINK-1661,2020-062AG,2024-02-12T14:47:46.024224,15.06419394,.0001316,53.0536,170.7630,81.5723,278.5416,0,U,46355,999,19053,.50543E-3,.7259E-4,0
STARLINK-1665,2020-062AH,2024-02-12T15:08:59.953344,15.06436651,.0001572,53.0545,170.7355,88.3756,271.7413,0,U,46356,999,19053,.99079E-3,.14522E-3,0
STARLINK-1666,2020-062AJ,2024-02-12T13:25:35.413824,15.06383914,.0002476,53.0538,151.0141,50.8250,309.2959,0,U,46357,999,19080,.20281E-3,.2739E-4,0
STARLINK-1690,2020-062AK,2024-02-12T16:07:23.421504,15.06404854,.0001481,53.0543,170.5110,110.1168,249.9981,0,U,46358,999,19036,.69029E-4,.747E-5,0
STARLINK-1707,2020-062AL,2024-02-12T20:25:29.802432,15.06408269,.0001426,53.0528,124.7096,78.2537,281.8612,0,U,46359,999,19119,.66971E-3,.971E-4,0
STARLINK-1713,2020-062AM,2024-02-12T12:59:38.281920,15.06407667,.000127,53.0524,126.0995,100.9436,259.1695,0,U,46360,999,19097,.6916E-3,.10037E-3,0
STARLINK-1722,2020-062AN,2024-02-12T20:13:30.595008,15.06400327,.0001635,53.0544,124.7351,88.5840,271.5336,0,U,46361,999,19101,.13952E-2,.20561E-3,0
STARLINK-1726,2020-062AP,2024-02-12T11:45:19.937376,15.06414842,.0001192,53.0524,126.3294,54.3179,305.7920,0,U,46362,999,19096,.31666E-2,.47221E-3,0
STARLINK-1739,2020-062AQ,2024-02-12T13:08:53.517696,15.06404759,.0001367,53.0525,126.0598,114.3931,245.7201,0,U,46363,999,19097,.1247E-2,.18344E-3,0
STARLINK-1763,2020-062AR,2024-02-13T03:32:51.453600,15.06394690,.0001194,53.0533,103.8849,113.9693,246.1421,0,U,46364,999,19151,.41156E-3,.5853E-4,0
STARLINK-1550,2020-062AS,2024-02-13T00:00:02.000160,15.75315092,.0004362,53.0444,77.2362,26.8972,300.6570,0,U,46365,999,586,.17249E-2,.273505E-2,0
STARLINK-1651,2020-062AT,2024-02-13T04:17:53.040768,15.06387074,.0001595,53.0535,123.2393,92.4567,267.6605,0,U,46366,999,19124,.61174E-3,.8839E-4,0
STARLINK-1658,2020-062AV,2024-02-12T13:55:57.836064,15.06427685,.0001466,53.0537,150.9195,76.2305,283.8847,0,U,46368,999,19063,.14541E-3,.1887E-4,0
STARLINK-1670,2020-062AX,2024-02-12T14:39:48.259872,15.06465718,.0001329,53.0537,150.7870,99.4313,260.6826,0,U,46370,999,19063,.17805E-2,.26386E-3,0
STARLINK-1688,2020-062AY,2024-02-12T12:16:41.405376,15.08019082,.0001233,53.0552,150.9635,95.0025,265.1105,0,U,46371,999,19062,.15414E-2,.23785E-3,0
STARLINK-1689,2020-062AZ,2024-02-12T17:53:31.301952,15.06421561,.0001346,53.0541,170.1818,88.0956,272.0187,0,U,46372,999,19037,.40857E-3,.5813E-4,0
STARLINK-1711,2020-062BB,2024-02-12T10:15:46.774080,15.06407525,.0001575,53.0532,101.6130,72.9672,287.1489,0,U,46374,999,19147,.21663E-3,.2947E-4,0
STARLINK-1724,2020-062BC,2024-02-12T20:09:34.064640,15.06397198,.0001402,53.0524,124.7553,71.4897,288.6244,0,U,46375,999,19119,.11943E-2,.17551E-3,0
STARLINK-1742,2020-062BD,2024-02-12T12:33:07.862688,15.06416569,.0001483,53.0537,126.1827,79.9287,280.1870,0,U,46376,999,19114,.67933E-3,.9856E-4,0
STARLINK-1758,2020-062BH,2024-02-12T13:20:11.050944,15.06433333,.0001264,53.0527,151.0385,93.9859,266.1274,0,U,46380,999,19080,.13324E-2,.19638E-3,0
STARLINK-1769,2020-062BK,2024-02-12T19:16:29.373600,15.06404402,.0001409,53.0531,124.9242,72.3287,287.7856,0,U,46382,999,19101,-.16089E-4,-.521E-5,0
STARLINK-1770,2020-062BL,2024-02-12T15:46:09.672960,15.06415382,.0001434,53.0545,170.5788,89.5006,270.6147,0,U,46383,999,19035,.73013E-3,.10615E-3,0
STARLINK-1771,2020-062BM,2024-02-12T17:27:00.629568,15.06389804,.0001361,53.0534,170.2646,94.0123,266.1022,0,U,46384,999,19036,-.19349E-3,-.3161E-4,0
GAOFEN-11 02,2020-064A,2024-02-13T02:42:26.631072,15.23465984,.0003685,97.4278,163.0689,133.2361,226.9184,0,U,46396,999,19134,.56277E-3,.13361E-3,0
FREGAT DEB,2011-037LK,2024-02-13T03:05:33.620640,12.40729892,.0825558,51.3260,81.9641,244.9918,106.3038,0,U,46404,999,14738,.68084E+0,.315658E-2,0
FREGAT DEB,2011-037LM,2024-01-27T20:58:05.580480,10.19015131,.2027037,51.5822,218.8702,230.9797,109.2632,0,U,46406,999,13005,.18853E-2,.57E-5,0
FREGAT DEB,2011-037LS,2024-02-12T08:55:31.724544,11.60348729,.1689044,51.4952,114.5620,162.9842,203.5568,0,U,46411,999,14862,.71885E-2,.23973E-3,0
FREGAT DEB,2011-037LU,2024-02-12T17:23:21.984864,11.09568580,.1228979,51.0250,160.9330,292.3039,55.2085,0,U,46413,999,13809,.1081E+0,.14602E-3,0
COSMOS 2251 DEB,1993-036BWU,2024-01-14T21:39:38.047680,14.35058930,.0125591,73.9217,222.8342,292.7523,66.0396,0,U,46430,999,69614,.28325E-2,.8812E-4,0
COSMOS 2251 DEB,1993-036BWW,2024-02-07T20:18:44.156160,13.34808999,.048248,73.8693,91.7171,322.9388,151.9512,0,U,46432,999,57967,.12113E-2,.1157E-4,0
FENGYUN 1C DEB,1999-025EYU,2024-01-17T19:09:46.886112,14.20036992,.0123875,98.5023,24.3053,264.1194,94.5852,0,U,46439,999,50494,.28164E-2,.6436E-4,0
FENGYUN 1C DEB,1999-025EYV,2024-01-31T08:03:25.179840,14.18221996,.0179154,98.6720,69.4039,302.1745,117.8946,0,U,46440,999,52703,.41261E-3,.949E-5,0
FENGYUN 1C DEB,1999-025EYY,2024-02-11T15:03:00.449856,14.03896132,.0106888,99.2538,88.7015,58.6313,92.1723,0,U,46443,999,50168,.30073E-2,.495E-4,0
FENGYUN 1C DEB,1999-025EYZ,2024-01-27T07:12:28.156896,14.23677566,.0087929,98.5206,42.9361,356.4404,69.3800,0,U,46444,999,52816,.1046E-2,.2442E-4,0
FENGYUN 1C DEB,1999-025EZD,2024-02-09T21:10:06.365568,14.12883498,.0077975,99.1175,78.8190,206.2466,153.4744,0,U,46448,999,67777,.28093E-2,.5337E-4,0
FENGYUN 1C DEB,1999-025EZE,2024-02-09T01:23:58.078176,14.16081404,.0211719,98.7224,82.9673,44.9208,316.8882,0,U,46449,999,48106,.75263E-3,.1805E-4,0
FENGYUN 1C DEB,1999-025EZF,2024-01-31T18:06:06.207264,13.94073167,.0205326,98.0944,321.0481,191.4537,168.1917,0,U,46450,999,51595,.1902E-2,.2964E-4,0
FENGYUN 1C DEB,1999-025EZG,2024-02-12T03:30:35.504928,14.06403696,.0199967,98.1878,112.9714,325.5339,62.2122,0,U,46451,999,47545,.39009E-2,.7688E-4,0
JILIN-1 GAOFEN 3B,2020-065A,2024-02-13T02:57:39.723552,15.22027494,.0010102,97.3615,91.4768,302.0046,58.0208,0,U,46454,999,18838,.62088E-3,.14153E-3,0
JILIN-1 GAOFEN 3C,2020-065B,2024-02-13T03:24:36.271872,15.22191646,.0009515,97.3568,90.8563,317.9501,42.1004,0,U,46455,999,18839,.63895E-3,.14636E-3,0
JILIN-1 GAOFEN 3D,2020-065C,2024-02-13T02:25:07.753152,15.22560085,.0008832,97.3657,92.4437,319.3236,40.7340,0,U,46456,999,18839,.65786E-3,.15234E-3,0
JILIN-1 GAOFEN 3E,2020-065D,2024-02-13T03:09:14.192928,15.21893750,.0009248,97.3624,91.5882,324.5277,35.5343,0,U,46457,999,18838,.63744E-3,.14472E-3,0
JILIN-1 GAOFEN 3F,2020-065E,2024-02-13T02:33:43.187040,15.21911456,.0009376,97.3557,90.4925,312.4516,47.5927,0,U,46458,999,18838,.602E-3,.1367E-3,0
JILIN-1 GAOFEN 3G,2020-065F,2024-02-13T03:46:38.632512,15.21986919,.0010354,97.3672,92.6053,317.2632,42.7798,0,U,46459,999,18839,.62335E-3,.14193E-3,0
JILIN-1 GAOFEN 3H,2020-065G,2024-02-13T02:48:56.841120,15.21771345,.0009546,97.3569,90.6936,314.9181,45.1280,0,U,46460,999,18838,.59911E-3,.13549E-3,0
JILIN-1 GAOFEN 3I,2020-065H,2024-02-13T03:37:50.753568,15.21957085,.0009842,97.3657,92.3276,305.8766,54.1556,0,U,46461,999,18839,.63957E-3,.1455E-3,0
JILIN-1 GAOFEN 3J,2020-065J,2024-02-13T03:14:46.045824,15.22009263,.0009241,97.3613,91.5694,312.5693,47.4763,0,U,46462,999,18839,.64677E-3,.14736E-3,0
ATLAS 5 CENTAUR DEB,2014-055CL,2024-01-17T21:14:38.580000,1.82522140,.4813719,20.2976,237.5446,1.9504,359.5060,0,U,46464,999,2774,0,-.35E-6,0
SL-14 DEB,1991-056DA,2024-02-12T10:15:45.112608,13.11728108,.0027917,82.5606,34.5222,258.4471,101.3514,0,U,46465,999,16877,.22381E-2,.81E-5,0
SL-14 DEB,1991-056DB,2024-02-09T09:26:40.806240,13.20271660,.0006204,82.5723,24.5718,30.7601,329.3886,0,U,46466,999,16928,.3905E-2,.1589E-4,0
FENGYUN 1C DEB,1999-025EZK,2024-02-12T16:33:09.952128,14.15846124,.0049285,98.9083,121.4798,351.1316,161.3155,0,U,46468,999,64317,.30681E-2,.6064E-4,0
